NORAD_CAT_ID,OBJECT_NAME,OBJECT_TYPE,EPOCH,MEAN_MOTION,ECCENTRICITY,INCLINATION,RA_OF_ASC_NODE,ARG_OF_PERICENTER,MEAN_ANOMALY,BSTAR,MEAN_MOTION_DOT,MEAN_MOTION_DDOT,TLE_LINE0,TLE_LINE1,TLE_LINE2,SEMIMAJOR_AXIS,PERIOD,APOGEE,PERIGEE,DECAYED
52839.0,STARLINK-4048,PAYLOAD,2022-12-04 09:52:22,15.08840828,0.0002806,53.2172,341.9891,29.1428,330.972,-2.8368000000000014e-05,-7.400000000000001e-06,0.0,0 STARLINK-4048,1 52839U 22062K   22338.41136682 -.00000740  00000-0 -28368-4 0  9992,2 52839  53.2172 341.9891 0002806  29.1428 330.9720 15.08840828 26439,6917.878000000002,95.438,541.684,537.802,0.0
52839.0,STARLINK-4048,PAYLOAD,2022-12-04 17:49:17,15.08836524,0.0002737,53.2176,340.5030000000001,26.5684,333.5448,5.9306e-05,6.55e-06,0.0,0 STARLINK-4048,1 52839U 22062K   22338.74256490  .00000655  00000-0  59306-4 0  9997,2 52839  53.2176 340.5030 0002737  26.5684 333.5448 15.08836524 25995,6917.891,95.438,541.649,537.863,0.0
52839.0,STARLINK-4048,PAYLOAD,2022-12-05 09:43:08,15.08838003,0.0002921,53.2174,337.5292,28.5096,331.6055,6.8891e-05,8.08e-06,0.0,0 STARLINK-4048,1 52839U 22062K   22339.40496464  .00000808  00000-0  68891-4 0  9997,2 52839  53.2174 337.5292 0002921  28.5096 331.6055 15.08838003 26092,6917.886,95.438,541.7719999999998,537.731,0.0
52839.0,STARLINK-4048,PAYLOAD,2022-12-06 06:23:08,15.08851312,0.0002968,53.2171,333.6634,29.8994,330.2167,5.3699e-05,5.66e-06,0.0,0 STARLINK-4048,1 52839U 22062K   22340.26607360  .00000566  00000-0  53699-4 0  9993,2 52839  53.2171 333.6634 0002968  29.8994 330.2167 15.08851312 26714,6917.846,95.437,541.764,537.658,0.0
52839.0,STARLINK-4048,PAYLOAD,2022-12-06 22:17:01,15.08831332,0.000306,53.2175,330.6914,28.7515,331.3645,-6.6553e-05,-1.348e-05,0.0,0 STARLINK-4048,1 52839U 22062K   22340.92849052 -.00001348  00000-0 -66553-4 0  9996,2 52839  53.2175 330.6914 0003060  28.7515 331.3645 15.08831332 26811,6917.906999999997,95.438,541.889,537.655,0.0
52839.0,STARLINK-4048,PAYLOAD,2022-12-07 15:46:15,15.08839185,0.0002717,53.2178,327.4189,32.4725,327.6434,1.3855e-05,-6.8e-07,0.0,0 STARLINK-4048,1 52839U 22062K   22341.65712586 -.00000068  00000-0  13855-4 0  9992,2 52839  53.2178 327.4189 0002717  32.4725 327.6434 15.08839185 26925,6917.8830000000025,95.438,541.627,537.868,0.0
52839.0,STARLINK-4048,PAYLOAD,2022-12-08 10:50:51,15.08855273,0.000244,53.218,323.853,14.6755,345.4308,0.000406,6.182e-05,0.0,0 STARLINK-4048,1 52839U 22062K   22342.45198109  .00006182  00000-0  40600-3 0  9999,2 52839  53.2180 323.8530 0002440  14.6755 345.4308 15.08855273 26559,6917.834,95.437,541.387,538.011,0.0
52839.0,STARLINK-4048,PAYLOAD,2022-12-08 15:36:50,15.0898899,0.0002595,53.2178,322.9607,323.2091,36.8722,0.0012567,0.00019851,0.0,0 STARLINK-4048,1 52839U 22062K   22342.65058601  .00019851  00000-0  12567-2 0  9990,2 52839  53.2178 322.9607 0002595 323.2091  36.8722 15.08988990 26581,6917.425,95.428,541.085,537.495,0.0
52839.0,STARLINK-4048,PAYLOAD,2022-12-09 05:55:33,15.08817109,0.0002704,53.2176,320.2885,359.4994,0.5995,-0.00081649,-0.00013252,0.0,0 STARLINK-4048,1 52839U 22062K   22343.24691591 -.00013252  00000-0 -81649-3 0  9996,2 52839  53.2176 320.2885 0002704 359.4994   0.5995 15.08817109 27161,6917.95,95.439,541.686,537.945,0.0
52839.0,STARLINK-4048,PAYLOAD,2022-12-09 13:52:27,15.08831321,0.0002082,53.2178,318.7984,20.1253,339.982,-0.00026752,-4.542e-05,0.0,0 STARLINK-4048,1 52839U 22062K   22343.57809428 -.00004542  00000-0 -26752-3 0  9998,2 52839  53.2178 318.7984 0002082  20.1253 339.9820 15.08831321 27218,6917.906999999997,95.438,541.212,538.332,0.0
52839.0,STARLINK-4048,PAYLOAD,2022-12-10 05:46:20,15.0880786,0.0002375,53.2179,315.8253,30.0312,330.0816,-1.7427e-05,-5.65e-06,0.0,0 STARLINK-4048,1 52839U 22062K   22344.24050931 -.00000565  00000-0 -17427-4 0  9991,2 52839  53.2179 315.8253 0002375  30.0312 330.0816 15.08807860 27316,6917.979,95.44,541.487,538.201,0.0
52839.0,STARLINK-4048,PAYLOAD,2022-12-10 07:21:43,15.08806709,0.0002549,53.2177,315.5276,25.8624,334.2495,-3.4256e-05,-8.33e-06,0.0,0 STARLINK-4048,1 52839U 22062K   22344.30675115 -.00000833  00000-0 -34256-4 0  9992,2 52839  53.2177 315.5276 0002549  25.8624 334.2495 15.08806709 26833,6917.982,95.44,541.611,538.0840000000002,0.0
52839.0,STARLINK-4048,PAYLOAD,2022-12-11 05:37:06,15.08804578,0.00019,53.2184,311.3636,43.2806,316.8335,3.6501e-05,2.92e-06,0.0,0 STARLINK-4048,1 52839U 22062K   22345.23410866  .00000292  00000-0  36501-4 0  9997,2 52839  53.2184 311.3636 0001900  43.2806 316.8335 15.08804578 27462,6917.989000000001,95.44,541.168,538.539,0.0
52839.0,STARLINK-4048,PAYLOAD,2022-12-11 07:12:31,15.08787964,0.000233,53.2183,311.0659,32.5468,327.5668,-9.8799e-05,-1.858e-05,0.0,0 STARLINK-4048,1 52839U 22062K   22345.30036353 -.00001858  00000-0 -98799-4 0  9998,2 52839  53.2183 311.0659 0002330  32.5468 327.5668 15.08787964 27474,6918.0390000000025,95.441,541.516,538.293,0.0
52839.0,STARLINK-4048,PAYLOAD,2022-12-12 03:52:29,15.08844399,0.000296,53.2186,307.1969,25.3569,334.7568,5.2363e-05,5.45e-06,0.0,0 STARLINK-4048,1 52839U 22062K   22346.16145071  .00000545  00000-0  52363-4 0  9998,2 52839  53.2186 307.1969 0002960  25.3569 334.7568 15.08844399 27608,6917.8669999999975,95.437,541.78,537.684,0.0
52839.0,STARLINK-4048,PAYLOAD,2022-12-12 07:03:16,15.0883476,0.0003086,53.2178,306.6045,24.4331,335.6807,3.7487e-05,3.08e-06,0.0,0 STARLINK-4048,1 52839U 22062K   22346.29393771  .00000308  00000-0  37487-4 0  9991,2 52839  53.2178 306.6045 0003086  24.4331 335.6807 15.08834760 27624,6917.896,95.438,541.896,537.627,0.0
52839.0,STARLINK-4048,PAYLOAD,2022-12-13 03:43:16,15.08840426,0.0002885,53.2169,302.7383,25.7918,334.3217,2.757e-05,1.5e-06,0.0,0 STARLINK-4048,1 52839U 22062K   22347.15505378  .00000150  00000-0  27570-4 0  9992,2 52839  53.2169 302.7383 0002885  25.7918 334.3217 15.08840426 27758,6917.879,95.438,541.74,537.748,0.0
52839.0,STARLINK-4048,PAYLOAD,2022-12-14 03:34:03,15.08835474,0.0002898999999999,53.2173,298.2767,28.199,331.9159,5.5777e-05,5.99e-06,0.0,0 STARLINK-4048,1 52839U 22062K   22348.14865383  .00000599  00000-0  55777-4 0  9994,2 52839  53.2173 298.2767 0002899  28.1990 331.9159 15.08835474 27418,6917.894,95.438,541.765,537.754,0.0
52839.0,STARLINK-4048,PAYLOAD,2022-12-14 22:38:41,15.08836326,0.0002975,53.2175,294.7097,29.3283,330.7876,-5.260399999999999e-05,-1.126e-05,0.0,0 STARLINK-4048,1 52839U 22062K   22348.94354075 -.00001126  00000-0 -52604-4 0  9998,2 52839  53.2175 294.7097 0002975  29.3283 330.7876 15.08836326 28028,6917.892,95.438,541.815,537.6990000000002,0.0
52839.0,STARLINK-4048,PAYLOAD,2022-12-15 06:35:36,15.08843708,0.0002916,53.2175,293.2232,27.0549,333.0595,3.1893e-05,2.19e-06,0.0,0 STARLINK-4048,1 52839U 22062K   22349.27473337  .00000219  00000-0  31893-4 0  9995,2 52839  53.2175 293.2232 0002916  27.0549 333.0595 15.08843708 28079,6917.869000000002,95.437,541.751,537.717,0.0
52839.0,STARLINK-4048,PAYLOAD,2022-12-15 20:54:05,15.08836158,0.0002897,53.2169,290.5458,18.9701,341.1398,6.3242e-05,7.18e-06,0.0,0 STARLINK-4048,1 52839U 22062K   22349.87089536  .00000718  00000-0  63242-4 0  9992,2 52839  53.2169 290.5458 0002897  18.9701 341.1398 15.08836158 27676,6917.892,95.438,541.761,537.753,0.0
52839.0,STARLINK-4048,PAYLOAD,2022-12-16 12:47:56,15.088437099999998,0.0002894,53.2178,287.5718,27.5883,332.5263,7.3686e-05,8.84e-06,0.0,0 STARLINK-4048,1 52839U 22062K   22350.53329001  .00000884  00000-0  73686-4 0  9998,2 52839  53.2178 287.5718 0002894  27.5883 332.5263 15.08843710 28268,6917.869000000002,95.437,541.736,537.732,0.0
52839.0,STARLINK-4048,PAYLOAD,2022-12-16 20:44:52,15.08836182,0.000257,53.2181,286.0853,34.4368,325.6790000000001,-2.2368000000000007e-05,-6.44e-06,0.0,0 STARLINK-4048,1 52839U 22062K   22350.86449947 -.00000644  00000-0 -22368-4 0  9993,2 52839  53.2181 286.0853 0002570  34.4368 325.6790 15.08836182 28311,6917.892,95.438,541.535,537.979,0.0
52839.0,STARLINK-4048,PAYLOAD,2022-12-17 03:06:26,15.08827265,0.000265,53.2181,284.8961,30.3631,329.7514,-8.978899999999999e-05,-1.717e-05,0.0,0 STARLINK-4048,1 52839U 22062K   22351.12946851 -.00001717  00000-0 -89789-4 0  9991,2 52839  53.2181 284.8961 0002650  30.3631 329.7514 15.08827265 28359,6917.919,95.438,541.618,537.951,0.0
52839.0,STARLINK-4048,PAYLOAD,2022-12-17 12:38:44,15.08833012,0.0002918999999999,53.218,283.112,29.5463,330.5693,-0.00010392,-1.942e-05,0.0,0 STARLINK-4048,1 52839U 22062K   22351.52690773 -.00001942  00000-0 -10392-3 0  9997,2 52839  53.2180 283.1120 0002919  29.5463 330.5693 15.08833012 27925,6917.901999999999,95.438,541.786,537.747,0.0
52839.0,STARLINK-4048,PAYLOAD,2022-12-17 19:00:17,15.08834004,0.0002829,53.2167,281.921,24.4334,335.6792,-4.7176e-05,-1.039e-05,0.0,0 STARLINK-4048,1 52839U 22062K   22351.79186560 -.00001039  00000-0 -47176-4 0  9998,2 52839  53.2167 281.9210 0002829  24.4334 335.6792 15.08834004 28454,6917.899,95.438,541.721,537.807,0.0
52839.0,STARLINK-4048,PAYLOAD,2022-12-17 20:35:40,15.08834814,0.0002853999999999,53.2163,281.6238,24.8594,335.2535,3.1436000000000007e-06,-2.39e-06,0.0,0 STARLINK-4048,1 52839U 22062K   22351.85810344 -.00000239  00000-0  31436-5 0  9992,2 52839  53.2163 281.6238 0002854  24.8594 335.2535 15.08834814 27973,6917.896,95.438,541.736,537.7869999999998,0.0
52839.0,STARLINK-4048,PAYLOAD,2022-12-18 12:29:31,15.08835023,0.0002856,53.2169,278.6511,25.4645,334.6487,-4.4454e-05,-9.96e-06,0.0,0 STARLINK-4048,1 52839U 22062K   22352.52050676 -.00000996  00000-0 -44454-4 0  9995,2 52839  53.2169 278.6511 0002856  25.4645 334.6487 15.08835023 28079,6917.896,95.438,541.736,537.785,0.0
52839.0,STARLINK-4048,PAYLOAD,2022-12-18 18:51:04,15.08838503,0.0002987,53.2162,277.4619,30.796,329.3207,1.4094e-05,-6.4e-07,0.0,0 STARLINK-4048,1 52839U 22062K   22352.78546428 -.00000064  00000-0  14094-4 0  9990,2 52839  53.2162 277.4619 0002987  30.7960 329.3207 15.08838503 28114,6917.885,95.438,541.816,537.684,0.0
